CCSDS_OMM_VERS = 2.0
CREATION_DATE  = 
ORIGINATOR     = 

OBJECT_NAME    = GSLV R/B
OBJECT_ID      = 2022-138AN
CENTER_NAME    = EARTH
REF_FRAME      = TEME
TIME_SYSTEM    = UTC
MEAN_ELEMENT_THEORY = SGP/SGP4

EPOCH          = 2026-03-04T07:19:49.734336
MEAN_MOTION    = 14.96730402
ECCENTRICITY   = .0022222
INCLINATION    = 87.3887
RA_OF_ASC_NODE = 168.1641
ARG_OF_PERICENTER = 165.3258
MEAN_ANOMALY   = 194.8623

EPHEMERIS_TYPE = 0
CLASSIFICATION_TYPE = U
NORAD_CAT_ID   = 54149
ELEMENT_SET_NO = 999
REV_AT_EPOCH   = 18312
BSTAR          = .48444E-3
MEAN_MOTION_DOT = .5589E-4
MEAN_MOTION_DDOT = 0

CCSDS_OMM_VERS = 2.0
CREATION_DATE  = 
ORIGINATOR     = 

OBJECT_NAME    = XRISM
OBJECT_ID      = 2023-137A
CENTER_NAME    = EARTH
REF_FRAME      = TEME
TIME_SYSTEM    = UTC
MEAN_ELEMENT_THEORY = SGP/SGP4

EPOCH          = 2026-03-04T00:39:19.889856
MEAN_MOTION    = 15.11422447
ECCENTRICITY   = .0008161
INCLINATION    = 31.0031
RA_OF_ASC_NODE = 320.2862
ARG_OF_PERICENTER = 341.2942
MEAN_ANOMALY   = 18.7396

EPHEMERIS_TYPE = 0
CLASSIFICATION_TYPE = U
NORAD_CAT_ID   = 57800
ELEMENT_SET_NO = 999
REV_AT_EPOCH   = 13693
BSTAR          = .47679E-3
MEAN_MOTION_DOT = .8362E-4
MEAN_MOTION_DDOT = 0

CCSDS_OMM_VERS = 2.0
CREATION_DATE  = 
ORIGINATOR     = 

OBJECT_NAME    = ACS3
OBJECT_ID      = 2024-077B
CENTER_NAME    = EARTH
REF_FRAME      = TEME
TIME_SYSTEM    = UTC
MEAN_ELEMENT_THEORY = SGP/SGP4

EPOCH          = 2026-03-04T10:58:22.856736
MEAN_MOTION    = 13.89335925
ECCENTRICITY   = .0055747
INCLINATION    = 97.2108
RA_OF_ASC_NODE = 5.7453
ARG_OF_PERICENTER = 90.7142
MEAN_ANOMALY   = 270.0410

EPHEMERIS_TYPE = 0
CLASSIFICATION_TYPE = U
NORAD_CAT_ID   = 59588
ELEMENT_SET_NO = 999
REV_AT_EPOCH   = 9347
BSTAR          = .2089E-1
MEAN_MOTION_DOT = .25829E-3
MEAN_MOTION_DDOT = 0

CCSDS_OMM_VERS = 2.0
CREATION_DATE  = 
ORIGINATOR     = 

OBJECT_NAME    = SZ-21 MODULE
OBJECT_ID      = 2025-246C
CENTER_NAME    = EARTH
REF_FRAME      = TEME
TIME_SYSTEM    = UTC
MEAN_ELEMENT_THEORY = SGP/SGP4

EPOCH          = 2026-03-03T18:27:35.995968
MEAN_MOTION    = 15.68011820
ECCENTRICITY   = .00014472
INCLINATION    = 41.4730
RA_OF_ASC_NODE = 239.7930
ARG_OF_PERICENTER = 287.9355
MEAN_ANOMALY   = 72.1329

EPHEMERIS_TYPE = 0
CLASSIFICATION_TYPE = U
NORAD_CAT_ID   = 66515
ELEMENT_SET_NO = 999
REV_AT_EPOCH   = 1714
BSTAR          = .39281321E-3
MEAN_MOTION_DOT = .44751E-3
MEAN_MOTION_DDOT = 0

